start=new Date('2022-04-25T00:00:00.000Z').valueOf();
sats=[{"SEMIMAJOR_AXIS":"6925.348","OBJECT_TYPE":"PAYLOAD","FILE":"3414531","TLE_LINE1":"1 47789U 21018C   22114.25035155 -.00000600  00000-0 -21364-4 0  9991","RA_OF_ASC_NODE":"105.7866","TIME_SYSTEM":"UTC","PERIOD":"95.592","MEAN_MOTION":"15.06400304","SITE":"AFETR","ECCENTRICITY":"0.00020900","TLE_LINE2":"2 47789  53.0554 105.7866 0002090  51.8098 308.3079 15.06400304 63196","OBJECT_ID":"2021-018C","DECAY_DATE":null,"REV_AT_EPOCH":"6319","EPHEMERIS_TYPE":"0","LAUNCH_DATE":"2021-03-11","ELEMENT_SET_NO":"999","MEAN_MOTION_DDOT":"0.0000000000000","PERIAPSIS":"545.765","RCS_SIZE":"LARGE","CENTER_NAME":"EARTH","REF_FRAME":"TEME","BSTAR":"-0.00002136400000","GP_ID":"201946846","NORAD_CAT_ID":"47789","ARG_OF_PERICENTER":"51.8098","INCLINATION":"53.0554","MEAN_ANOMALY":"308.3079","COUNTRY_CODE":"US","CLASSIFICATION_TYPE":"U","APOAPSIS":"548.660","MEAN_MOTION_DOT":"-0.00000600","OBJECT_NAME":"STARLINK-2315","EPOCH":"2022-04-24T06:00:30.373920","MEAN_ELEMENT_THEORY":"SGP4"},{"RA_OF_ASC_NODE":"95.3004","TLE_LINE1":"1 47790U 21018D   22114.35815849  .00000410  00000-0  46456-4 0  9996","FILE":"3414186","OBJECT_TYPE":"PAYLOAD","SEMIMAJOR_AXIS":"6925.353","PERIOD":"95.592","TIME_SYSTEM":"UTC","ECCENTRICITY":"0.00016460","SITE":"AFETR","MEAN_MOTION":"15.06398616","LAUNCH_DATE":"2021-03-11","EPHEMERIS_TYPE":"0","REV_AT_EPOCH":"6370","DECAY_DATE":null,"OBJECT_ID":"2021-018D","TLE_LINE2":"2 47790  53.0558  95.3004 0001646  57.3777 302.7371 15.06398616 63703","PERIAPSIS":"546.078","ELEMENT_SET_NO":"999","MEAN_MOTION_DDOT":"0.0000000000000","ARG_OF_PERICENTER":"57.3777","NORAD_CAT_ID":"47790","GP_ID":"201935353","BSTAR":"0.00004645600000","REF_FRAME":"TEME","CENTER_NAME":"EARTH","RCS_SIZE":"LARGE","CLASSIFICATION_TYPE":"U","COUNTRY_CODE":"US","MEAN_ANOMALY":"302.7371","INCLINATION":"53.0558","MEAN_ELEMENT_THEORY":"SGP4","EPOCH":"2022-04-24T08:35:44.893536","OBJECT_NAME":"STARLINK-2319","MEAN_MOTION_DOT":"0.00000410","APOAPSIS":"548.358"},{"ECCENTRICITY":"0.00018800","SITE":"AFETR","MEAN_MOTION":"15.06398939","LAUNCH_DATE":"2021-03-11","EPHEMERIS_TYPE":"0","REV_AT_EPOCH":"6329","DECAY_DATE":null,"OBJECT_ID":"2021-018E","TLE_LINE2":"2 47791  53.0526 124.9059 0001880  52.3045 307.8114 15.06398939 63294","RA_OF_ASC_NODE":"124.9059","TLE_LINE1":"1 47791U 21018E   22114.44386559 -.00000842  00000-0 -37647-4 0  9991","FILE":"3414186","OBJECT_TYPE":"PAYLOAD","SEMIMAJOR_AXIS":"6925.352","PERIOD":"95.592","TIME_SYSTEM":"UTC","CLASSIFICATION_TYPE":"U","MEAN_ANOMALY":"307.8114","COUNTRY_CODE":"US","INCLINATION":"53.0526","MEAN_ELEMENT_THEORY":"SGP4","EPOCH":"2022-04-24T10:39:09.986976","OBJECT_NAME":"STARLINK-2322","MEAN_MOTION_DOT":"-0.00000842","APOAPSIS":"548.519","PERIAPSIS":"545.915","MEAN_MOTION_DDOT":"0.0000000000000","ELEMENT_SET_NO":"999","ARG_OF_PERICENTER":"52.3045","NORAD_CAT_ID":"47791","GP_ID":"201936103","BSTAR":"-0.00003764700000","REF_FRAME":"TEME","CENTER_NAME":"EARTH","RCS_SIZE":"LARGE"},{"ARG_OF_PERICENTER":"46.3422","NORAD_CAT_ID":"47792","BSTAR":"-0.00002957800000","GP_ID":"201934352","REF_FRAME":"TEME","CENTER_NAME":"EARTH","RCS_SIZE":"LARGE","PERIAPSIS":"545.796","MEAN_MOTION_DDOT":"0.0000000000000","ELEMENT_SET_NO":"999","EPOCH":"2022-04-24T09:22:11.925120","MEAN_ELEMENT_THEORY":"SGP4","OBJECT_NAME":"STARLINK-2334","MEAN_MOTION_DOT":"-0.00000722","APOAPSIS":"548.600","CLASSIFICATION_TYPE":"U","MEAN_ANOMALY":"313.7734","COUNTRY_CODE":"US","INCLINATION":"53.0527","PERIOD":"95.592","TIME_SYSTEM":"UTC","RA_OF_ASC_NODE":"105.1447","TLE_LINE1":"1 47792U 21018F   22114.39041580 -.00000722  00000-0 -29578-4 0  9999","FILE":"3414186","OBJECT_TYPE":"PAYLOAD","SEMIMAJOR_AXIS":"6925.333","LAUNCH_DATE":"2021-03-11","EPHEMERIS_TYPE":"0","REV_AT_EPOCH":"6356","DECAY_DATE":null,"OBJECT_ID":"2021-018F","TLE_LINE2":"2 47792  53.0527 105.1447 0002025  46.3422 313.7734 15.06405085 63567","ECCENTRICITY":"0.00020250","SITE":"AFETR","MEAN_MOTION":"15.06405085"},{"PERIAPSIS":"545.756","ELEMENT_SET_NO":"999","MEAN_MOTION_DDOT":"0.0000000000000","REF_FRAME":"TEME","CENTER_NAME":"EARTH","RCS_SIZE":"LARGE","ARG_OF_PERICENTER":"51.4279","NORAD_CAT_ID":"47793","BSTAR":"0.00008281800000","GP_ID":"201934602","MEAN_ANOMALY":"308.6899","COUNTRY_CODE":"US","INCLINATION":"53.0551","CLASSIFICATION_TYPE":"U","MEAN_MOTION_DOT":"0.00000952","APOAPSIS":"548.684","MEAN_ELEMENT_THEORY":"SGP4","EPOCH":"2022-04-24T08:07:53.610816","OBJECT_NAME":"STARLINK-2338","OBJECT_TYPE":"PAYLOAD","SEMIMAJOR_AXIS":"6925.355","RA_OF_ASC_NODE":"105.3854","FILE":"3414186","TLE_LINE1":"1 47793U 21018G   22114.33881494  .00000952  00000-0  82818-4 0  9999","TIME_SYSTEM":"UTC","PERIOD":"95.592","MEAN_MOTION":"15.06397981","SITE":"AFETR","ECCENTRICITY":"0.00021140","TLE_LINE2":"2 47793  53.0551 105.3854 0002114  51.4279 308.6899 15.06397981 63543","OBJECT_ID":"2021-018G","LAUNCH_DATE":"2021-03-11","EPHEMERIS_TYPE":"0","DECAY_DATE":null,"REV_AT_EPOCH":"6354"},{"APOAPSIS":"548.777","MEAN_MOTION_DOT":"-0.00000294","OBJECT_NAME":"STARLINK-2341","MEAN_ELEMENT_THEORY":"SGP4","EPOCH":"2022-04-24T08:13:12.184896","INCLINATION":"53.0540","COUNTRY_CODE":"US","MEAN_ANOMALY":"314.7910","CLASSIFICATION_TYPE":"U","CENTER_NAME":"EARTH","RCS_SIZE":"LARGE","REF_FRAME":"TEME","BSTAR":"-0.00000084715000","GP_ID":"201935853","NORAD_CAT_ID":"47794","ARG_OF_PERICENTER":"45.3261","ELEMENT_SET_NO":"999","MEAN_MOTION_DDOT":"0.0000000000000","PERIAPSIS":"545.671","TLE_LINE2":"2 47794  53.0540 105.3674 0002242  45.3261 314.7910 15.06396599 63554","OBJECT_ID":"2021-018H","DECAY_DATE":null,"REV_AT_EPOCH":"6355","LAUNCH_DATE":"2021-03-11","EPHEMERIS_TYPE":"0","MEAN_MOTION":"15.06396599","SITE":"AFETR","ECCENTRICITY":"0.00022420","TIME_SYSTEM":"UTC","PERIOD":"95.592","SEMIMAJOR_AXIS":"6925.359","OBJECT_TYPE":"PAYLOAD","FILE":"3414186","TLE_LINE1":"1 47794U 21018H   22114.34250214 -.00000294  00000-0 -84715-6 0  9992","RA_OF_ASC_NODE":"105.3674"},{"APOAPSIS":"548.414","MEAN_MOTION_DOT":"-0.00000389","OBJECT_NAME":"STARLINK-2347","MEAN_ELEMENT_THEORY":"SGP4","EPOCH":"2022-04-24T15:54:58.188672","INCLINATION":"53.0544","MEAN_ANOMALY":"306.8835","COUNTRY_CODE":"US","CLASSIFICATION_TYPE":"U","RCS_SIZE":"LARGE","CENTER_NAME":"EARTH","REF_FRAME":"TEME","BSTAR":"-0.00000723230000","GP_ID":"201942838","NORAD_CAT_ID":"47795","ARG_OF_PERICENTER":"53.2314","ELEMENT_SET_NO":"999","MEAN_MOTION_DDOT":"0.0000000000000","PERIAPSIS":"546.007","TLE_LINE2":"2 47795  53.0544 103.9261 0001738  53.2314 306.8835 15.06401084 63252","OBJECT_ID":"2021-018J","DECAY_DATE":null,"REV_AT_EPOCH":"6325","LAUNCH_DATE":"2021-03-11","EPHEMERIS_TYPE":"0","MEAN_MOTION":"15.06401084","SITE":"AFETR","ECCENTRICITY":"0.00017380","TIME_SYSTEM":"UTC","PERIOD":"95.592","SEMIMAJOR_AXIS":"6925.345","OBJECT_TYPE":"PAYLOAD","FILE":"3414372","TLE_LINE1":"1 47795U 21018J   22114.66317348 -.00000389  00000-0 -72323-5 0  9996","RA_OF_ASC_NODE":"103.9261"},{"PERIOD":"95.593","TIME_SYSTEM":"UTC","RA_OF_ASC_NODE":"103.2687","TLE_LINE1":"1 47796U 21018K   22114.81061757 -.00000210  00000-0  47940-5 0  9993","FILE":"3414277","OBJECT_TYPE":"PAYLOAD","SEMIMAJOR_AXIS":"6925.370","LAUNCH_DATE":"2021-03-11","EPHEMERIS_TYPE":"0","REV_AT_EPOCH":"6327","DECAY_DATE":null,"OBJECT_ID":"2021-018K","TLE_LINE2":"2 47796  53.0547 103.2687 0002267  53.2888 306.8309 15.06393086 63275","ECCENTRICITY":"0.00022670","SITE":"AFETR","MEAN_MOTION":"15.06393086","ARG_OF_PERICENTER":"53.2888","NORAD_CAT_ID":"47796","BSTAR":"0.00000479400000","GP_ID":"201940590","REF_FRAME":"TEME","RCS_SIZE":"LARGE","CENTER_NAME":"EARTH","PERIAPSIS":"545.665","ELEMENT_SET_NO":"999","MEAN_MOTION_DDOT":"0.0000000000000","EPOCH":"2022-04-24T19:27:17.358048","MEAN_ELEMENT_THEORY":"SGP4","OBJECT_NAME":"STARLINK-2373","MEAN_MOTION_DOT":"-0.00000210","APOAPSIS":"548.805","CLASSIFICATION_TYPE":"U","COUNTRY_CODE":"US","MEAN_ANOMALY":"306.8309","INCLINATION":"53.0547"},{"PERIOD":"95.592","TIME_SYSTEM":"UTC","RA_OF_ASC_NODE":"129.8737","FILE":"3414186","TLE_LINE1":"1 47797U 21018L   22114.44892709 -.00000205  00000-0  51214-5 0  9995","OBJECT_TYPE":"PAYLOAD","SEMIMAJOR_AXIS":"6925.348","LAUNCH_DATE":"2021-03-11","EPHEMERIS_TYPE":"0","DECAY_DATE":null,"REV_AT_EPOCH":"6321","TLE_LINE2":"2 47797  53.0553 129.8737 0001792  49.9190 310.1956 15.06400169 63214","OBJECT_ID":"2021-018L","ECCENTRICITY":"0.00017920","MEAN_MOTION":"15.06400169","SITE":"AFETR","ARG_OF_PERICENTER":"49.9190","NORAD_CAT_ID":"47797","BSTAR":"0.00000512140000","GP_ID":"201935102","REF_FRAME":"TEME","RCS_SIZE":"LARGE","CENTER_NAME":"EARTH","PERIAPSIS":"545.972","MEAN_MOTION_DDOT":"0.0000000000000","ELEMENT_SET_NO":"999","EPOCH":"2022-04-24T10:46:27.300576","MEAN_ELEMENT_THEORY":"SGP4","OBJECT_NAME":"STARLINK-2377","MEAN_MOTION_DOT":"-0.00000205","APOAPSIS":"548.454","CLASSIFICATION_TYPE":"U","COUNTRY_CODE":"US","MEAN_ANOMALY":"310.1956","INCLINATION":"53.0553"},{"MEAN_ANOMALY":"309.1987","COUNTRY_CODE":"US","INCLINATION":"53.0548","CLASSIFICATION_TYPE":"U","MEAN_MOTION_DOT":"0.00004610","APOAPSIS":"548.599","EPOCH":"2022-04-24T11:45:30.758976","MEAN_ELEMENT_THEORY":"SGP4","OBJECT_NAME":"STARLINK-2379","PERIAPSIS":"545.794","MEAN_MOTION_DDOT":"0.0000000000000","ELEMENT_SET_NO":"999","REF_FRAME":"TEME","CENTER_NAME":"EARTH","RCS_SIZE":"LARGE","NORAD_CAT_ID":"47798","ARG_OF_PERICENTER":"50.9181","BSTAR":"0.00032814000000","GP_ID":"201935354","SITE":"AFETR","MEAN_MOTION":"15.06405614","ECCENTRICITY":"0.00020250","OBJECT_ID":"2021-018M","TLE_LINE2":"2 47798  53.0548 104.7070 0002025  50.9181 309.1987 15.06405614 63574","LAUNCH_DATE":"2021-03-11","EPHEMERIS_TYPE":"0","REV_AT_EPOCH":"6357","DECAY_DATE":null,"OBJECT_TYPE":"PAYLOAD","SEMIMAJOR_AXIS":"6925.331","RA_OF_ASC_NODE":"104.7070","TLE_LINE1":"1 47798U 21018M   22114.48993934  .00004610  00000-0  32814-3 0  9998","FILE":"3414186","TIME_SYSTEM":"UTC","PERIOD":"95.592"}];
